     3.03           N: GNSS NAV DATA    M: Mixed            RINEX VERSION / TYPE
ES 1.5                                  20230801 033249 UTC PGM / RUN BY / DATE 
log: C:\Users\visse\code\GISMarkers\GIS-1\SFE_Facet_230731_1COMMENT             
input_format: u-blox, option: -TADJ=0.1                     COMMENT             
GPSA   1.4901E-08  2.2352E-08 -1.1921E-07 -1.1921E-07       IONOSPHERIC CORR    
GPSB   1.1674E+05  1.4746E+05 -6.5536E+04 -3.2768E+05       IONOSPHERIC CORR    
GAL    0.0000E+00  0.0000E+00  0.0000E+00  0.0000E+00       IONOSPHERIC CORR    
QZSA   1.9558E-08  1.4901E-08 -4.1723E-07 -1.0133E-06       IONOSPHERIC CORR    
QZSB   1.2698E+05  1.1469E+05  0.0000E+00  5.8982E+05       IONOSPHERIC CORR    
IRNA   0.0000E+00  0.0000E+00  0.0000E+00  0.0000E+00       IONOSPHERIC CORR    
IRNB   0.0000E+00  0.0000E+00  0.0000E+00  0.0000E+00       IONOSPHERIC CORR    
GPUT  0.0000000000E+00-4.440892099E-15 319488 2273          TIME SYSTEM CORR    
GAUT  0.0000000000E+00 0.000000000E+00      0    0          TIME SYSTEM CORR    
QZUT -9.3132257462E-10 0.000000000E+00 356352 2273          TIME SYSTEM CORR    
BDUT  0.0000000000E+00 0.000000000E+00      0    0          TIME SYSTEM CORR    
IRUT  0.0000000000E+00 0.000000000E+00      0    0          TIME SYSTEM CORR    
    18                                                      LEAP SECONDS        
                                                            END OF HEADER       
S31 2023  8  1  1 58 24  .135041773319E-07  .727595761418E-11  .179880000000E+06
     -.191404406400E+05 -.235000000000E-03  .125000000000E-07  .000000000000E+00
     -.375717064800E+05  .114375000000E-03  .125000000000E-07  .200000000000E+01
      .888000000000E-01 -.236000000000E-03  .000000000000E+00  .000000000000E+00
G 3 2023  8  1  4  0  0 -.207888893783E-03  .171667124960E-10  .000000000000E+00
      .350000000000E+02 -.151187500000E+03  .394445001646E-08  .201767749369E+01
     -.785477459431E-05  .507282873150E-02  .233016908169E-05  .515363329315E+04
      .187200000000E+06  .223517417908E-07  .217329002376E+01 -.465661287308E-07
      .979903248355E+00  .345375000000E+03  .108123296254E+01 -.814533928608E-08
     -.245367363393E-09  .100000000000E+01  .227300000000E+04  .000000000000E+00
      .200000000000E+01  .000000000000E+00  .186264514923E-08  .350000000000E+02
      .180006000000E+06  .400000000000E+01
G31 2023  8  1  3 59 44 -.221075024456E-03 -.682121026330E-12  .000000000000E+00
      .300000000000E+01  .189375000000E+02  .529343477852E-08  .166873235777E+01
      .112503767014E-05  .103526446037E-01  .645779073238E-05  .515358917236E+04
      .187184000000E+06 -.178813934326E-06 -.199485381824E+01  .199303030968E-06
      .954069253225E+00  .254468750000E+03  .560090129911E+00 -.828105922507E-08
      .485020203038E-09  .100000000000E+01  .227300000000E+04  .000000000000E+00
      .200000000000E+01  .000000000000E+00 -.135041773319E-07  .300000000000E+01
      .180006000000E+06  .400000000000E+01
G 4 2023  8  1  4  0  0  .112291891128E-03  .111413100967E-10  .000000000000E+00
      .340000000000E+02 -.861562500000E+02  .407766985132E-08 -.129691630291E+01
     -.465847551823E-05  .247276155278E-02  .121742486954E-04  .515364722824E+04
      .187200000000E+06  .447034835815E-07 -.302956575472E+01  .204890966415E-07
      .963614028586E+00  .143375000000E+03 -.300936858629E+01 -.764103256539E-08
      .597167731576E-09  .100000000000E+01  .227300000000E+04  .000000000000E+00
      .200000000000E+01  .000000000000E+00 -.465661287308E-08  .802000000000E+03
      .180006000000E+06  .400000000000E+01
G26 2023  8  1  4  0  0  .234589446336E-03 -.136424205266E-11  .000000000000E+00
      .103000000000E+03 -.186250000000E+02  .568166523559E-08  .947319597904E+00
     -.702217221260E-06  .802033022046E-02  .689737498760E-05  .515371815109E+04
      .187200000000E+06  .800937414169E-07 -.103973712445E+01  .689178705215E-07
      .933020982469E+00  .229656250000E+03  .462579534534E+00 -.852606943073E-08
     -.791104381244E-09  .100000000000E+01  .227300000000E+04  .000000000000E+00
      .280000000000E+01  .000000000000E+00  .698491930962E-08  .103000000000E+03
      .180006000000E+06  .400000000000E+01
G28 2023  8  1  4  0  0  .796332024038E-04 -.250111042988E-11  .000000000000E+00
      .200000000000E+03  .202500000000E+02  .508521181948E-08  .110011820505E+01
      .116601586342E-05  .636567827314E-03  .653043389320E-05  .515370776749E+04
      .187200000000E+06 -.335276126862E-07 -.205170336778E+01  .149011611938E-07
      .961194147034E+00  .254125000000E+03  .163804074608E+01 -.806962184643E-08
      .620740142033E-09  .100000000000E+01  .227300000000E+04  .000000000000E+00
      .200000000000E+01  .000000000000E+00 -.977888703346E-08  .456000000000E+03
      .180006000000E+06  .400000000000E+01
G22 2023  8  1  4  0  0  .520826783031E-03  .522959453519E-11  .000000000000E+00
      .700000000000E+02 -.726875000000E+02  .423874798944E-08 -.104646514467E+01
     -.346079468727E-05  .143883866258E-01  .130105763674E-04  .515366659546E+04
      .187200000000E+06 -.141561031342E-06 -.298106409557E+01  .353902578354E-06
      .963416148435E+00  .133531250000E+03 -.179814628817E+01 -.781639701288E-08
      .656098757718E-09  .100000000000E+01  .227300000000E+04  .000000000000E+00
      .280000000000E+01  .630000000000E+02 -.838190317154E-08  .700000000000E+02
      .180006000000E+06  .400000000000E+01
G 1 2023  8  1  4  0  0  .170393846929E-03 -.159161572810E-11  .000000000000E+00
      .670000000000E+02  .116562500000E+03  .384158858901E-08 -.307724385096E+01
      .600703060627E-05  .129230882740E-01  .454485416412E-06  .515364198112E+04
      .187200000000E+06  .242143869400E-07  .114275958407E+01 -.134110450745E-06
      .989998464198E+00  .384062500000E+03  .990612774221E+00 -.797640367780E-08
      .283583240952E-09  .100000000000E+01  .227300000000E+04  .000000000000E+00
      .200000000000E+01  .630000000000E+02  .465661287308E-08  .670000000000E+02
      .180006000000E+06  .400000000000E+01
G 6 2023  8  1  4  0  0  .571923330426E-03 -.443378667114E-11  .000000000000E+00
      .420000000000E+02  .103312500000E+03  .395195032888E-08 -.287392021829E+01
      .530853867531E-05  .268068024889E-02  .121258199215E-05  .515371231270E+04
      .187200000000E+06  .596046447754E-07  .113442359304E+01  .484287738800E-07
      .989191656100E+00  .373156250000E+03 -.765956399056E+00 -.807283626603E-08
      .175364447490E-09  .100000000000E+01  .227300000000E+04  .000000000000E+00
      .200000000000E+01  .000000000000E+00  .372529029846E-08  .420000000000E+02
      .180006000000E+06  .400000000000E+01
G16 2023  8  1  4  0  0 -.473936554044E-03  .477484718431E-11  .000000000000E+00
      .740000000000E+02 -.840625000000E+01  .480448584041E-08  .596968387044E-01
     -.294297933578E-06  .133122270927E-01  .828877091408E-05  .515362831879E+04
      .187200000000E+06 -.186264514923E-08 -.881550563685E+00  .106170773506E-06
      .964288438210E+00  .219406250000E+03  .790018439050E+00 -.815855412224E-08
     -.869321925033E-09  .100000000000E+01  .227300000000E+04  .000000000000E+00
      .200000000000E+01  .000000000000E+00 -.102445483208E-07  .740000000000E+02
      .180006000000E+06  .400000000000E+01
G 2 2023  8  1  4  0  0 -.570266507566E-03  .397903932026E-11  .000000000000E+00
      .370000000000E+02  .122687500000E+03  .441589822560E-08 -.396764687573E+00
      .653974711895E-05  .159409448970E-01  .195205211639E-05  .515354744339E+04
      .187200000000E+06 -.353902578354E-06  .104268210581E+01  .540167093277E-07
      .967427390811E+00  .349781250000E+03 -.136161180542E+01 -.858750056101E-08
      .356800576462E-09  .100000000000E+01  .227300000000E+04  .000000000000E+00
      .200000000000E+01  .000000000000E+00 -.176951289177E-07  .370000000000E+02
      .180006000000E+06  .400000000000E+01
G32 2023  8  1  4  0  0 -.532247126102E-03 -.716227077646E-11  .000000000000E+00
      .840000000000E+02 -.905937500000E+02  .422374736460E-08 -.265656191864E+00
     -.465475022793E-05  .697478896473E-02  .128913670778E-04  .515378210258E+04
      .187200000000E+06 -.540167093277E-07 -.307330602659E+01  .152736902237E-06
      .960551928923E+00  .135500000000E+03 -.220504672758E+01 -.779639617977E-08
      .571809532448E-09  .100000000000E+01  .227300000000E+04  .000000000000E+00
      .200000000000E+01  .000000000000E+00  .465661287308E-09  .840000000000E+02
      .180006000000E+06  .400000000000E+01
G21 2023  8  1  4  0  0  .151412095875E-03 -.568434188608E-12  .000000000000E+00
      .570000000000E+02  .116500000000E+03  .457054752451E-08 -.907765409056E+00
      .612996518612E-05  .247064852156E-01  .176392495632E-05  .515359092712E+04
      .187200000000E+06 -.404193997383E-06  .103727136140E+01 -.206753611565E-06
      .961727663017E+00  .352968750000E+03 -.727728175748E+00 -.864750306036E-08
      .539665336370E-09  .100000000000E+01  .227300000000E+04  .000000000000E+00
      .200000000000E+01  .000000000000E+00 -.102445483208E-07  .570000000000E+02
      .180006000000E+06  .400000000000E+01
J 3 2023  8  1  3  0  0 -.541564077139E-06 -.341060513165E-12  .000000000000E+00
      .201000000000E+03  .102396875000E+04  .939324840936E-09 -.232675142642E+01
      .324230641127E-04  .745626136195E-01 -.135377049446E-04  .649309871864E+04
      .183600000000E+06 -.203400850296E-05  .864775666818E+00 -.957399606705E-06
      .709420326524E+00  .647500000000E+03 -.158765627772E+01 -.139934400258E-08
      .961111462722E-09  .200000000000E+01  .227300000000E+04  .100000000000E+01
      .280000000000E+01  .000000000000E+00  .465661287308E-09  .969000000000E+03
      .180006000000E+06  .100000000000E+01
